{
  "type": "FeatureCollection",
  "features": [
    {
      "type": "Feature",
      "properties": {
        "norad_id": 40696,
        "name": "FENGYUN 1C DEB",
        "group": "fengyun-1c-debris",
        "lat": -7.886924852911745,
        "lon": -18.234835614094163,
        "alt_km": 852.8011970207335,
        "timestamp": "2025-12-19T22:41:52.684010+00:00",
        "meta_object_name": "FENGYUN 1C DEB",
        "meta_object_id": "1999-025EXC",
        "meta_epoch": "2025-12-17T05:24:20.221920",
        "meta_mean_motion": 13.96744083,
        "meta_eccentricity": 0.00795529,
        "meta_inclination": 98.9563,
        "meta_ra_of_asc_node": 337.8647,
        "meta_arg_of_pericenter": 345.1128,
        "meta_mean_anomaly": 14.7694,
        "meta_ephemeris_type": 0,
        "meta_classification_type": "U",
        "meta_norad_cat_id": 40696,
        "meta_element_set_no": 999,
        "meta_rev_at_epoch": 55742,
        "meta_bstar": 8.1397831e-05,
        "meta_mean_motion_dot": 7.3e-07,
        "meta_mean_motion_ddot": 0,
        "tle_line1": "1 40696U 99025EXC 25351.22523405  .00000073  00000+0  81398-4 0  9991",
        "tle_line2": "2 40696  98.9563 337.8647 0079552 345.1128  14.7694 13.96744083557426"
      },
      "geometry": {
        "type": "Point",
        "coordinates": [
          -18.234835614094163,
          -7.886924852911745
        ]
      }
    },
    {
      "type": "Feature",
      "properties": {
        "norad_id": 41003,
        "name": "FENGYUN 1C DEB",
        "group": "fengyun-1c-debris",
        "lat": 63.32465172909507,
        "lon": -104.51509673794982,
        "alt_km": 688.9095702498398,
        "timestamp": "2025-12-19T22:41:52.684021+00:00",
        "meta_object_name": "FENGYUN 1C DEB",
        "meta_object_id": "1999-025EXH",
        "meta_epoch": "2025-12-18T12:10:10.012512",
        "meta_mean_motion": 14.73078069,
        "meta_eccentricity": 0.00691513,
        "meta_inclination": 98.9664,
        "meta_ra_of_asc_node": 272.2138,
        "meta_arg_of_pericenter": 274.1099,
        "meta_mean_anomaly": 85.2204,
        "meta_ephemeris_type": 0,
        "meta_classification_type": "U",
        "meta_norad_cat_id": 41003,
        "meta_element_set_no": 999,
        "meta_rev_at_epoch": 52505,
        "meta_bstar": 0.0031269645,
        "meta_mean_motion_dot": 0.00020893,
        "meta_mean_motion_ddot": 0,
        "tle_line1": "1 41003U 99025EXH 25352.50706033  .00020893  00000+0  31270-2 0  9990",
        "tle_line2": "2 41003  98.9664 272.2138 0069151 274.1099  85.2204 14.73078069525054"
      },
      "geometry": {
        "type": "Point",
        "coordinates": [
          -104.51509673794982,
          63.32465172909507
        ]
      }
    },
    {
      "type": "Feature",
      "properties": {
        "norad_id": 41006,
        "name": "FENGYUN 1C DEB",
        "group": "fengyun-1c-debris",
        "lat": -13.045483802623213,
        "lon": 44.09996174985915,
        "alt_km": 1078.567012818865,
        "timestamp": "2025-12-19T22:41:52.684031+00:00",
        "meta_object_name": "FENGYUN 1C DEB",
        "meta_object_id": "1999-025EXL",
        "meta_epoch": "2025-12-18T11:05:59.990496",
        "meta_mean_motion": 13.85399836,
        "meta_eccentricity": 0.0190581,
        "meta_inclination": 102.3677,
        "meta_ra_of_asc_node": 225.0633,
        "meta_arg_of_pericenter": 355.3031,
        "meta_mean_anomaly": 4.6321,
        "meta_ephemeris_type": 0,
        "meta_classification_type": "U",
        "meta_norad_cat_id": 41006,
        "meta_element_set_no": 999,
        "meta_rev_at_epoch": 57568,
        "meta_bstar": 0.0023897006,
        "meta_mean_motion_dot": 3.067e-05,
        "meta_mean_motion_ddot": 0,
        "tle_line1": "1 41006U 99025EXL 25352.46249989  .00003067  00000+0  23897-2 0  9990",
        "tle_line2": "2 41006 102.3677 225.0633 0190581 355.3031   4.6321 13.85399836575686"
      },
      "geometry": {
        "type": "Point",
        "coordinates": [
          44.09996174985915,
          -13.045483802623213
        ]
      }
    },
    {
      "type": "Feature",
      "properties": {
        "norad_id": 41007,
        "name": "FENGYUN 1C DEB",
        "group": "fengyun-1c-debris",
        "lat": 38.81723334534795,
        "lon": 13.041739189542307,
        "alt_km": 818.0709639621846,
        "timestamp": "2025-12-19T22:41:52.684041+00:00",
        "meta_object_name": "FENGYUN 1C DEB",
        "meta_object_id": "1999-025EXM",
        "meta_epoch": "2025-11-29T06:55:22.773792",
        "meta_mean_motion": 13.85678237,
        "meta_eccentricity": 0.01723955,
        "meta_inclination": 99.9731,
        "meta_ra_of_asc_node": 359.205,
        "meta_arg_of_pericenter": 79.2855,
        "meta_mean_anomaly": 282.7657,
        "meta_ephemeris_type": 0,
        "meta_classification_type": "U",
        "meta_norad_cat_id": 41007,
        "meta_element_set_no": 999,
        "meta_rev_at_epoch": 57212,
        "meta_bstar": 0.0017167305,
        "meta_mean_motion_dot": 2.158e-05,
        "meta_mean_motion_ddot": 0,
        "tle_line1": "1 41007U 99025EXM 25333.28845803  .00002158  00000+0  17167-2 0  9990",
        "tle_line2": "2 41007  99.9731 359.2050 0172395  79.2855 282.7657 13.85678237572123"
      },
      "geometry": {
        "type": "Point",
        "coordinates": [
          13.041739189542307,
          38.81723334534795
        ]
      }
    },
    {
      "type": "Feature",
      "properties": {
        "norad_id": 41011,
        "name": "FENGYUN 1C DEB",
        "group": "fengyun-1c-debris",
        "lat": -40.28930730296093,
        "lon": -148.3574958420672,
        "alt_km": 846.5225815060667,
        "timestamp": "2025-12-19T22:41:52.684051+00:00",
        "meta_object_name": "FENGYUN 1C DEB",
        "meta_object_id": "1999-025EXR",
        "meta_epoch": "2025-12-18T09:02:41.888544",
        "meta_mean_motion": 14.429389,
        "meta_eccentricity": 0.0309723,
        "meta_inclination": 99.1685,
        "meta_ra_of_asc_node": 37.8223,
        "meta_arg_of_pericenter": 341.484,
        "meta_mean_anomaly": 17.5272,
        "meta_ephemeris_type": 0,
        "meta_classification_type": "U",
        "meta_norad_cat_id": 41011,
        "meta_element_set_no": 999,
        "meta_rev_at_epoch": 57238,
        "meta_bstar": 0.00048133433,
        "meta_mean_motion_dot": 2.815e-05,
        "meta_mean_motion_ddot": 0,
        "tle_line1": "1 41011U 99025EXR 25352.37687371  .00002815  00000+0  48133-3 0  9998",
        "tle_line2": "2 41011  99.1685  37.8223 0309723 341.4840  17.5272 14.42938900572389"
      },
      "geometry": {
        "type": "Point",
        "coordinates": [
          -148.3574958420672,
          -40.28930730296093
        ]
      }
    },
    {
      "type": "Feature",
      "properties": {
        "norad_id": 41018,
        "name": "FENGYUN 1C DEB",
        "group": "fengyun-1c-debris",
        "lat": 0.1774142326136749,
        "lon": -61.67799538620462,
        "alt_km": 1100.803819659288,
        "timestamp": "2025-12-19T22:41:52.684062+00:00",
        "meta_object_name": "FENGYUN 1C DEB",
        "meta_object_id": "1999-025EXY",
        "meta_epoch": "2025-12-15T01:30:35.121600",
        "meta_mean_motion": 13.52371588,
        "meta_eccentricity": 0.03049079,
        "meta_inclination": 99.9356,
        "meta_ra_of_asc_node": 293.4577,
        "meta_arg_of_pericenter": 112.862,
        "meta_mean_anomaly": 250.5013,
        "meta_ephemeris_type": 0,
        "meta_classification_type": "U",
        "meta_norad_cat_id": 41018,
        "meta_element_set_no": 999,
        "meta_rev_at_epoch": 88206,
        "meta_bstar": 0.0022149287,
        "meta_mean_motion_dot": 1.917e-05,
        "meta_mean_motion_ddot": 0,
        "tle_line1": "1 41018U 99025EXY 25349.06290650  .00001917  00000+0  22149-2 0  9997",
        "tle_line2": "2 41018  99.9356 293.4577 0304907 112.8620 250.5013 13.52371588882060"
      },
      "geometry": {
        "type": "Point",
        "coordinates": [
          -61.67799538620462,
          0.1774142326136749
        ]
      }
    },
    {
      "type": "Feature",
      "properties": {
        "norad_id": 41822,
        "name": "FENGYUN 1C DEB",
        "group": "fengyun-1c-debris",
        "lat": 58.7472907087818,
        "lon": -105.21321354937837,
        "alt_km": 796.0491059949745,
        "timestamp": "2025-12-19T22:41:52.684072+00:00",
        "meta_object_name": "FENGYUN 1C DEB",
        "meta_object_id": "1999-025EXZ",
        "meta_epoch": "2025-12-18T17:28:52.780224",
        "meta_mean_motion": 14.24839688,
        "meta_eccentricity": 0.00557555,
        "meta_inclination": 98.7325,
        "meta_ra_of_asc_node": 58.9054,
        "meta_arg_of_pericenter": 203.4956,
        "meta_mean_anomaly": 156.3675,
        "meta_ephemeris_type": 0,
        "meta_classification_type": "U",
        "meta_norad_cat_id": 41822,
        "meta_element_set_no": 999,
        "meta_rev_at_epoch": 47458,
        "meta_bstar": 0.0012001283,
        "meta_mean_motion_dot": 2.802e-05,
        "meta_mean_motion_ddot": 0,
        "tle_line1": "1 41822U 99025EXZ 25352.72838866  .00002802  00000+0  12001-2 0  9994",
        "tle_line2": "2 41822  98.7325  58.9054 0055755 203.4956 156.3675 14.24839688474584"
      },
      "geometry": {
        "type": "Point",
        "coordinates": [
          -105.21321354937837,
          58.7472907087818
        ]
      }
    }
  ]
}